[{"OBJECT_NAME":"STARLINK-5637","OBJECT_ID":"2023-014AT","EPOCH":"2026-03-09T12:25:46.435584","MEAN_MOTION":14.98330096,"ECCENTRICITY":0.00033072,"INCLINATION":69.9993,"RA_OF_ASC_NODE":104.8652,"ARG_OF_PERICENTER":270.0583,"MEAN_ANOMALY":90.0197,"EPHEMERIS_TYPE":0,"CLASSIFICATION_TYPE":"U","NORAD_CAT_ID":55432,"ELEMENT_SET_NO":999,"REV_AT_EPOCH":17104,"BSTAR":7.360521e-6,"MEAN_MOTION_DOT":-5.0e-8,"MEAN_MOTION_DDOT":0},{"OBJECT_NAME":"NOAA 16 DEB","OBJECT_ID":"2000-055HK","EPOCH":"2026-03-09T11:22:55.184448","MEAN_MOTION":14.96713123,"ECCENTRICITY":0.00044813,"INCLINATION":98.9091,"RA_OF_ASC_NODE":257.3123,"ARG_OF_PERICENTER":226.904,"MEAN_ANOMALY":133.1803,"EPHEMERIS_TYPE":0,"CLASSIFICATION_TYPE":"U","NORAD_CAT_ID":41307,"ELEMENT_SET_NO":999,"REV_AT_EPOCH":53055,"BSTAR":0.0073865996,"MEAN_MOTION_DOT":0.00085329,"MEAN_MOTION_DDOT":0}]
